NORAD_CAT_ID,OBJECT_NAME,OBJECT_TYPE,EPOCH,MEAN_MOTION,ECCENTRICITY,INCLINATION,RA_OF_ASC_NODE,ARG_OF_PERICENTER,MEAN_ANOMALY,BSTAR,MEAN_MOTION_DOT,MEAN_MOTION_DDOT,TLE_LINE0,TLE_LINE1,TLE_LINE2,SEMIMAJOR_AXIS,PERIOD,APOGEE,PERIGEE,DECAYED
53844.0,STARLINK-4745,PAYLOAD,2024-03-26 18:01:41,15.08840943,0.0001401,53.217,254.5188,86.4556,273.6596,0.0010833,0.00016995,0.0,0 STARLINK-4745,1 53844U 22114AC  24086.75117652  .00016995  00000-0  10833-2 0  9995,2 53844  53.2170 254.5188 0001401  86.4556 273.6596 15.08840943 85347,6917.878,95.437,540.712,538.773,0.0
53844.0,STARLINK-4745,PAYLOAD,2024-03-27 14:41:42,15.08839542,0.000124,53.2172,250.6531,81.061,279.0523,0.00061469,9.508e-05,0.0,0 STARLINK-4745,1 53844U 22114AC  24087.61229480  .00009508  00000-0  61469-3 0  9998,2 53844  53.2172 250.6531 0001240  81.0610 279.0523 15.08839542 85478,6917.882,95.438,540.605,538.889,0.0
53844.0,STARLINK-4745,PAYLOAD,2024-03-27 17:52:29,15.08801335,0.0002015,53.2171,250.0579,95.9049,264.2173,-0.0013607,-0.00021856,0.0,0 STARLINK-4745,1 53844U 22114AC  24087.74478451 -.00021856  00000-0 -13607-2 0  9998,2 53844  53.2171 250.0579 0002015  95.9049 264.2173 15.08801335 84952,6917.999,95.44,541.258,538.47,0.0
53844.0,STARLINK-4745,PAYLOAD,2024-03-28 03:24:49,15.08775105,0.0001607,53.2168,248.2729,89.3447,270.7729,-0.0010912,-0.00017582,0.0,0 STARLINK-4745,1 53844U 22114AC  24088.14224336 -.00017582  00000-0 -10912-2 0  9991,2 53844  53.2168 248.2729 0001607  89.3447 270.7729 15.08775105 85011,6918.079,95.442,541.055,538.832,0.0
53844.0,STARLINK-4745,PAYLOAD,2024-03-28 17:43:17,15.08852522,0.0001476,53.2165,245.5962,74.9807,285.1349,0.0021233,0.00033678,0.0,0 STARLINK-4745,1 53844U 22114AC  24088.73840200  .00033678  00000-0  21233-2 0  9990,2 53844  53.2165 245.5962 0001476  74.9807 285.1349 15.08852522 85108,6917.842,95.437,540.728,538.686,0.0
53844.0,STARLINK-4745,PAYLOAD,2024-03-29 19:09:26,15.0888115,8.34e-05,53.215,240.839,62.0725,298.0351,0.00082806,0.0001293,0.0,0 STARLINK-4745,1 53844U 22114AC  24089.79821877  .00012930  00000-0  82806-3 0  9998,2 53844  53.2150 240.8390 0000834  62.0725 298.0351 15.08881150 85261,6917.755,95.435,540.197,539.043,0.0
53844.0,STARLINK-4745,PAYLOAD,2024-03-30 09:27:54,15.08874994,0.0003401,53.216,238.1625,94.7871,265.351,0.00056569,8.735e-05,0.0,0 STARLINK-4745,1 53844U 22114AC  24090.39437527  .00008735  00000-0  56569-3 0  9996,2 53844  53.2160 238.1625 0003401  94.7871 265.3510 15.08874994 85352,6917.773,95.435,541.991,537.286,0.0
53844.0,STARLINK-4745,PAYLOAD,2024-03-30 14:14:03,15.08853578,9.07e-05,53.2166,237.2668,98.5969,261.5126,0.00047564,7.293e-05,0.0,0 STARLINK-4745,1 53844U 22114AC  24090.59309294  .00007293  00000-0  47564-3 0  9990,2 53844  53.2166 237.2668 0000907  98.5969 261.5126 15.08853578 85922,6917.839,95.437,540.331,539.076,0.0
53844.0,STARLINK-4745,PAYLOAD,2024-03-30 15:49:26,15.08854279,0.0001123,53.2195,236.9721,74.3961,285.7155,0.00027931,4.162e-05,0.0,0 STARLINK-4745,1 53844U 22114AC  24090.65933349  .00004162  00000-0  27931-3 0  9999,2 53844  53.2195 236.9721 0001123  74.3961 285.7155 15.08854279 85395,6917.837,95.437,540.479,538.925,0.0
53844.0,STARLINK-4745,PAYLOAD,2024-03-31 14:04:50,15.08850268,0.0001006,53.2161,232.8127,33.2663,326.8393,7.6492e-05,9.3e-06,0.0,0 STARLINK-4745,1 53844U 22114AC  24091.58669263  .00000930  00000-0  76492-4 0  9999,2 53844  53.2161 232.8127 0001006  33.2663 326.8393 15.08850268 86077,6917.849,95.437,540.41,539.018,0.0
53844.0,STARLINK-4745,PAYLOAD,2024-03-31 18:50:59,15.08853439,0.0001294,53.2167,231.9179,78.361,281.7527,0.0002858,4.265e-05,0.0,0 STARLINK-4745,1 53844U 22114AC  24091.78541113  .00004265  00000-0  28580-3 0  9993,2 53844  53.2167 231.9179 0001294  78.3610 281.7527 15.08853439 85565,6917.839,95.437,540.599,538.809,0.0
53844.0,STARLINK-4745,PAYLOAD,2024-04-01 15:30:59,15.08836334,0.0001359,53.2167,228.0533,81.3731,278.7415,-0.00024104,-4.122e-05,0.0,0 STARLINK-4745,1 53844U 22114AC  24092.64652772 -.00004122  00000-0 -24104-3 0  9995,2 53844  53.2167 228.0533 0001359  81.3731 278.7415 15.08836334 86238,6917.892,95.438,540.697,538.816,0.0
53844.0,STARLINK-4745,PAYLOAD,2024-04-01 18:41:46,15.08842586,0.0001301,53.2162,227.4584,77.7803,282.3334,-0.00010223,-1.915e-05,0.0,0 STARLINK-4745,1 53844U 22114AC  24092.77900545 -.00001915  00000-0 -10223-3 0  9997,2 53844  53.2162 227.4584 0001301  77.7803 282.3334 15.08842586 85717,6917.872,95.437,540.637,538.837,0.0
53844.0,STARLINK-4745,PAYLOAD,2024-04-02 12:11:01,15.08827996,0.0001454,53.2151,224.186,80.8819,279.2338,-0.00030798,-5.184e-05,0.0,0 STARLINK-4745,1 53844U 22114AC  24093.50765065 -.00005184  00000-0 -30798-3 0  9996,2 53844  53.2151 224.1860 0001454  80.8819 279.2338 15.08827996 85826,6917.917,95.438,540.788,538.776,0.0
53844.0,STARLINK-4745,PAYLOAD,2024-04-02 15:21:47,15.08827532,0.0001589,53.2163,223.5913,89.0182,271.0992,-0.00022763,-3.908e-05,0.0,0 STARLINK-4745,1 53844U 22114AC  24093.64013242 -.00003908  00000-0 -22763-3 0  9999,2 53844  53.2163 223.5913 0001589  89.0182 271.0992 15.08827532 86388,6917.918,95.438,540.883,538.684,0.0
53844.0,STARLINK-4745,PAYLOAD,2024-04-03 12:01:48,15.08835682,0.0001577,53.2172,219.7257,90.4125,269.7047,0.00027614,4.109e-05,0.0,0 STARLINK-4745,1 53844U 22114AC  24094.50125863  .00004109  00000-0  27614-3 0  9990,2 53844  53.2172 219.7257 0001577  90.4125 269.7047 15.08835682 85970,6917.894,95.438,540.85,538.668,0.0
53844.0,STARLINK-4745,PAYLOAD,2024-04-03 15:12:35,15.08839214,0.0001509,53.2167,219.1318,88.1023,272.0142,0.00039817,6.054e-05,0.0,0 STARLINK-4745,1 53844U 22114AC  24094.63373873  .00006054  00000-0  39817-3 0  9999,2 53844  53.2167 219.1318 0001509  88.1023 272.0142 15.08839214 86533,6917.883,95.438,540.792,538.704,0.0
53844.0,STARLINK-4745,PAYLOAD,2024-04-03 18:23:21,15.08838994,0.0001541,53.2168,218.5374,88.1846,271.9323,0.00051404,7.902e-05,0.0,0 STARLINK-4745,1 53844U 22114AC  24094.76622070  .00007902  00000-0  51404-3 0  9998,2 53844  53.2168 218.5374 0001541  88.1846 271.9323 15.08838994 86553,6917.883,95.438,540.815,538.682,0.0
53844.0,STARLINK-4745,PAYLOAD,2024-04-04 13:27:59,15.08840349,0.0001478,53.2164,214.9698,90.9586,269.1575,0.00021554,3.144e-05,0.0,0 STARLINK-4745,1 53844U 22114AC  24095.56110100  .00003144  00000-0  21554-3 0  9990,2 53844  53.2164 214.9698 0001478  90.9586 269.1575 15.08840349 86138,6917.879,95.438,540.767,538.722,0.0
53844.0,STARLINK-4745,PAYLOAD,2024-04-04 15:03:22,15.08844767,0.0001475,53.2167,214.6729,95.0489,265.0671,0.00033385,5.03e-05,0.0,0 STARLINK-4745,1 53844U 22114AC  24095.62733995  .00005030  00000-0  33385-3 0  9991,2 53844  53.2167 214.6729 0001475  95.0489 265.0671 15.08844767 86688,6917.866,95.437,540.751,538.71,0.0
53844.0,STARLINK-4745,PAYLOAD,2024-04-05 00:35:40,15.0885377,0.0001497,53.217,212.8887,96.792,263.3242,0.00069317,0.00010765,0.0,0 STARLINK-4745,1 53844U 22114AC  24096.02477709  .00010765  00000-0  69317-3 0  9999,2 53844  53.2170 212.8887 0001497  96.7920 263.3242 15.08853770 86206,6917.838,95.437,540.739,538.668,0.0
53844.0,STARLINK-4745,PAYLOAD,2024-04-05 11:43:22,15.08851254,0.0001693,53.2185,210.8081,101.0802,259.0381,0.00044995,6.882e-05,0.0,0 STARLINK-4745,1 53844U 22114AC  24096.48845613  .00006882  00000-0  44995-3 0  9992,2 53844  53.2185 210.8081 0001693 101.0802 259.0381 15.08851254 86271,6917.846,95.437,540.882,538.54,0.0
53844.0,STARLINK-4745,PAYLOAD,2024-04-05 13:18:45,15.08852475,0.0001685,53.2183,210.5106,100.9824,259.1358,0.00039294,5.973e-05,0.0,0 STARLINK-4745,1 53844U 22114AC  24096.55469524  .00005973  00000-0  39294-3 0  9999,2 53844  53.2183 210.5106 0001685 100.9824 259.1358 15.08852475 86829,6917.842,95.437,540.873,538.542,0.0
53844.0,STARLINK-4745,PAYLOAD,2024-04-05 14:54:08,15.08854675,0.000168,53.2183,210.2132,99.6636,260.4546,0.00045203,6.916e-05,0.0,0 STARLINK-4745,1 53844U 22114AC  24096.62093437  .00006916  00000-0  45203-3 0  9998,2 53844  53.2183 210.2132 0001680  99.6636 260.4546 15.08854675 86834,6917.836,95.437,540.863,538.538,0.0
53844.0,STARLINK-4745,PAYLOAD,2024-04-06 00:26:26,15.08872021,0.0001551,53.2171,208.4286,85.7863,274.3306,0.0008641,0.00013503,0.0,0 STARLINK-4745,1 53844U 22114AC  24097.01836657  .00013503  00000-0  86410-3 0  9996,2 53844  53.2171 208.4286 0001551  85.7863 274.3306 15.08872021 86355,6917.783,95.436,540.72,538.575,0.0
53844.0,STARLINK-4745,PAYLOAD,2024-04-06 16:20:19,15.08832347,0.0001933,53.2177,205.4557,93.4419,266.6794,9.4108e-05,1.21e-05,0.0,0 STARLINK-4745,1 53844U 22114AC  24097.68077665  .00001210  00000-0  94108-4 0  9991,2 53844  53.2177 205.4557 0001933  93.4419 266.6794 15.08832347 86459,6917.904,95.438,541.106,538.432,0.0
53844.0,STARLINK-4745,PAYLOAD,2024-04-07 13:00:20,15.08850315,0.0003094,53.2149,201.5875,82.6052,277.5292,0.00088147,0.00013773,0.0,0 STARLINK-4745,1 53844U 22114AC  24098.54190283  .00013773  00000-0  88147-3 0  9991,2 53844  53.2149 201.5875 0003094  82.6052 277.5292 15.08850315 87125,6917.849,95.437,541.854,537.573,0.0
53844.0,STARLINK-4745,PAYLOAD,2024-04-08 00:08:02,15.08841941,0.0001782,53.2163,199.508,81.9454,278.1741,0.0011239,0.00017645,0.0,0 STARLINK-4745,1 53844U 22114AC  24099.00558456  .00017645  00000-0  11239-2 0  9992,2 53844  53.2163 199.5080 0001782  81.9454 278.1741 15.08841941 86653,6917.874,95.437,540.972,538.507,0.0
53844.0,STARLINK-4745,PAYLOAD,2024-04-08 12:51:07,15.08847462,0.0002229,53.2156,197.1299,79.6217,280.5026,0.00052414,8.065e-05,0.0,0 STARLINK-4745,1 53844U 22114AC  24099.53550345  .00008065  00000-0  52414-3 0  9996,2 53844  53.2156 197.1299 0002229  79.6217 280.5026 15.08847462 86735,6917.858,95.437,541.265,538.181,0.0
53844.0,STARLINK-4745,PAYLOAD,2024-04-08 23:58:49,15.08847217,0.0002178,53.2148,195.048,80.1458,279.978,0.00032004,4.81e-05,0.0,0 STARLINK-4745,1 53844U 22114AC  24099.99918204  .00004810  00000-0  32004-3 0  9995,2 53844  53.2148 195.0480 0002178  80.1458 279.9780 15.08847217 87347,6917.858,95.437,541.23,538.217,0.0
